ONEWEB-0403             
1 50483U 21132Q   26094.21391796  .00000096  00000+0  21159-3 0  9993
2 50483  87.9240 350.1564 0001667  78.4033 281.7287 13.18688775211846
ONEWEB-0404             
1 50484U 21132R   26094.24733284 -.00000503  00000+0 -14540-2 0  9999
2 50484  87.8904  35.7654 0001508  77.1237 283.0060 13.11416765206002
ONEWEB-0405             
1 50485U 21132S   26094.22877391  .00000103  00000+0  22936-3 0  9999
2 50485  87.9239 350.1378 0001933  63.6482 296.4848 13.18687098212247
ONEWEB-0406             
1 50486U 21132T   26094.21887110  .00000099  00000+0  21815-3 0  9998
2 50486  87.9228 350.1625 0001282  79.7722 280.3554 13.18687923211874
ONEWEB-0407             
1 50487U 21132U   26094.21227561  .00000129  00000+0  29404-3 0  9993
2 50487  87.9239 350.1497 0001924  81.0881 279.0469 13.18688163211810
ONEWEB-0409             
1 50488U 21132V   26094.24563852 -.00000520  00000+0 -15027-2 0  9995
2 50488  87.8911  35.7488 0001577  74.2087 285.9214 13.11416149205890
ONEWEB-0412             
1 50489U 21132W   26094.20073165  .00000175  00000+0  41130-3 0  9994
2 50489  87.9231 350.1646 0001845  88.7011 271.4333 13.18688310211901
ONEWEB-0413             
1 50490U 21132X   26094.20567076 -.00000103  00000+0 -29450-3 0  9999
2 50490  87.9227 350.1662 0001969  86.1173 274.0185 13.18686730211845
ONEWEB-0414             
1 50491U 21132Y   26094.26669940  .00000133  00000+0  30473-3 0  9997
2 50491  87.9239 350.1285 0001707  84.9702 275.1625 13.18684910211887
ONEWEB-0417             
1 50492U 21132Z   26094.19908169  .00000164  00000+0  38414-3 0  9996
2 50492  87.9229 350.1679 0001508  76.8038 283.3262 13.18687474211858
ONEWEB-0418             
1 50493U 21132AA  26094.20884898  .00000110  00000+0  24701-3 0  9996
2 50493  87.9240 350.1581 0001425  76.1669 283.9622 13.18687068211917
ONEWEB-0419             
1 50494U 21132AB  26094.22711506  .00000088  00000+0  19088-3 0  9990
2 50494  87.9240 350.1546 0001652  69.8454 290.2856 13.18685438211832
ONEWEB-0420             
1 50495U 21132AC  26094.26836241  .00000177  00000+0  41728-3 0  9994
2 50495  87.9230 350.1562 0001992  80.1845 279.9512 13.18686397211835
ONEWEB-0421             
1 50496U 21132AD  26094.18587984  .00000137  00000+0  31386-3 0  9998
2 50496  87.9241 350.1661 0001680  92.0511 268.0813 13.18684007211866
ONEWEB-0424             
1 50497U 21132AE  26094.22217132  .00000129  00000+0  29490-3 0  9993
2 50497  87.9239 350.1547 0001784  68.8072 291.3251 13.18684586211895
ONEWEB-0426             
1 50498U 21132AF  26094.25846206  .00000105  00000+0  23294-3 0  9997
2 50498  87.9239 350.1399 0001240  98.6969 261.4304 13.18689313211849
