[{"OBJECT_NAME":"ONEWEB-0403","OBJECT_ID":"2021-132Q","EPOCH":"2026-04-04T05:08:02.511744","MEAN_MOTION":13.18688775,"ECCENTRICITY":0.0001667,"INCLINATION":87.924,"RA_OF_ASC_NODE":350.1564,"ARG_OF_PERICENTER":78.4033,"MEAN_ANOMALY":281.7287,"EPHEMERIS_TYPE":0,"CLASSIFICATION_TYPE":"U","NORAD_CAT_ID":50483,"ELEMENT_SET_NO":999,"REV_AT_EPOCH":21184,"BSTAR":0.00021159,"MEAN_MOTION_DOT":9.6e-07,"MEAN_MOTION_DDOT":0.0},{"OBJECT_NAME":"ONEWEB-0404","OBJECT_ID":"2021-132R","EPOCH":"2026-04-04T05:56:09.557376","MEAN_MOTION":13.11416765,"ECCENTRICITY":0.0001508,"INCLINATION":87.8904,"RA_OF_ASC_NODE":35.7654,"ARG_OF_PERICENTER":77.1237,"MEAN_ANOMALY":283.006,"EPHEMERIS_TYPE":0,"CLASSIFICATION_TYPE":"U","NORAD_CAT_ID":50484,"ELEMENT_SET_NO":999,"REV_AT_EPOCH":20600,"BSTAR":-0.001454,"MEAN_MOTION_DOT":-5.03e-06,"MEAN_MOTION_DDOT":0.0},{"OBJECT_NAME":"ONEWEB-0405","OBJECT_ID":"2021-132S","EPOCH":"2026-04-04T05:29:26.065824","MEAN_MOTION":13.18687098,"ECCENTRICITY":0.0001933,"INCLINATION":87.9239,"RA_OF_ASC_NODE":350.1378,"ARG_OF_PERICENTER":63.6482,"MEAN_ANOMALY":296.4848,"EPHEMERIS_TYPE":0,"CLASSIFICATION_TYPE":"U","NORAD_CAT_ID":50485,"ELEMENT_SET_NO":999,"REV_AT_EPOCH":21224,"BSTAR":0.00022936,"MEAN_MOTION_DOT":1.03e-06,"MEAN_MOTION_DDOT":0.0},{"OBJECT_NAME":"ONEWEB-0406","OBJECT_ID":"2021-132T","EPOCH":"2026-04-04T05:15:10.463040","MEAN_MOTION":13.18687923,"ECCENTRICITY":0.0001282,"INCLINATION":87.9228,"RA_OF_ASC_NODE":350.1625,"ARG_OF_PERICENTER":79.7722,"MEAN_ANOMALY":280.3554,"EPHEMERIS_TYPE":0,"CLASSIFICATION_TYPE":"U","NORAD_CAT_ID":50486,"ELEMENT_SET_NO":999,"REV_AT_EPOCH":21187,"BSTAR":0.00021815000000000002,"MEAN_MOTION_DOT":9.9e-07,"MEAN_MOTION_DDOT":0.0},{"OBJECT_NAME":"ONEWEB-0407","OBJECT_ID":"2021-132U","EPOCH":"2026-04-04T05:05:40.612704","MEAN_MOTION":13.18688163,"ECCENTRICITY":0.0001924,"INCLINATION":87.9239,"RA_OF_ASC_NODE":350.1497,"ARG_OF_PERICENTER":81.0881,"MEAN_ANOMALY":279.0469,"EPHEMERIS_TYPE":0,"CLASSIFICATION_TYPE":"U","NORAD_CAT_ID":50487,"ELEMENT_SET_NO":999,"REV_AT_EPOCH":21181,"BSTAR":0.00029404,"MEAN_MOTION_DOT":1.29e-06,"MEAN_MOTION_DDOT":0.0},{"OBJECT_NAME":"ONEWEB-0409","OBJECT_ID":"2021-132V","EPOCH":"2026-04-04T05:53:43.168128","MEAN_MOTION":13.11416149,"ECCENTRICITY":0.0001577,"INCLINATION":87.8911,"RA_OF_ASC_NODE":35.7488,"ARG_OF_PERICENTER":74.2087,"MEAN_ANOMALY":285.9214,"EPHEMERIS_TYPE":0,"CLASSIFICATION_TYPE":"U","NORAD_CAT_ID":50488,"ELEMENT_SET_NO":999,"REV_AT_EPOCH":20589,"BSTAR":-0.0015026999999999998,"MEAN_MOTION_DOT":-5.2e-06,"MEAN_MOTION_DDOT":0.0},{"OBJECT_NAME":"ONEWEB-0412","OBJECT_ID":"2021-132W","EPOCH":"2026-04-04T04:49:03.214560","MEAN_MOTION":13.1868831,"ECCENTRICITY":0.0001845,"INCLINATION":87.9231,"RA_OF_ASC_NODE":350.1646,"ARG_OF_PERICENTER":88.7011,"MEAN_ANOMALY":271.4333,"EPHEMERIS_TYPE":0,"CLASSIFICATION_TYPE":"U","NORAD_CAT_ID":50489,"ELEMENT_SET_NO":999,"REV_AT_EPOCH":21190,"BSTAR":0.0004113,"MEAN_MOTION_DOT":1.75e-06,"MEAN_MOTION_DDOT":0.0},{"OBJECT_NAME":"ONEWEB-0413","OBJECT_ID":"2021-132X","EPOCH":"2026-04-04T04:56:09.953664","MEAN_MOTION":13.1868673,"ECCENTRICITY":0.0001969,"INCLINATION":87.9227,"RA_OF_ASC_NODE":350.1662,"ARG_OF_PERICENTER":86.1173,"MEAN_ANOMALY":274.0185,"EPHEMERIS_TYPE":0,"CLASSIFICATION_TYPE":"U","NORAD_CAT_ID":50490,"ELEMENT_SET_NO":999,"REV_AT_EPOCH":21184,"BSTAR":-0.0002945,"MEAN_MOTION_DOT":-1.03e-06,"MEAN_MOTION_DDOT":0.0},{"OBJECT_NAME":"ONEWEB-0414","OBJECT_ID":"2021-132Y","EPOCH":"2026-04-04T06:24:02.828160","MEAN_MOTION":13.1868491,"ECCENTRICITY":0.0001707,"INCLINATION":87.9239,"RA_OF_ASC_NODE":350.1285,"ARG_OF_PERICENTER":84.9702,"MEAN_ANOMALY":275.1625,"EPHEMERIS_TYPE":0,"CLASSIFICATION_TYPE":"U","NORAD_CAT_ID":50491,"ELEMENT_SET_NO":999,"REV_AT_EPOCH":21188,"BSTAR":0.00030473,"MEAN_MOTION_DOT":1.33e-06,"MEAN_MOTION_DDOT":0.0},{"OBJECT_NAME":"ONEWEB-0417","OBJECT_ID":"2021-132Z","EPOCH":"2026-04-04T04:46:40.658016","MEAN_MOTION":13.18687474,"ECCENTRICITY":0.0001508,"INCLINATION":87.9229,"RA_OF_ASC_NODE":350.1679,"ARG_OF_PERICENTER":76.8038,"MEAN_ANOMALY":283.3262,"EPHEMERIS_TYPE":0,"CLASSIFICATION_TYPE":"U","NORAD_CAT_ID":50492,"ELEMENT_SET_NO":999,"REV_AT_EPOCH":21185,"BSTAR":0.00038414,"MEAN_MOTION_DOT":1.64e-06,"MEAN_MOTION_DDOT":0.0},{"OBJECT_NAME":"ONEWEB-0418","OBJECT_ID":"2021-132AA","EPOCH":"2026-04-04T05:00:44.551872","MEAN_MOTION":13.18687068,"ECCENTRICITY":0.0001425,"INCLINATION":87.924,"RA_OF_ASC_NODE":350.1581,"ARG_OF_PERICENTER":76.1669,"MEAN_ANOMALY":283.9622,"EPHEMERIS_TYPE":0,"CLASSIFICATION_TYPE":"U","NORAD_CAT_ID":50493,"ELEMENT_SET_NO":999,"REV_AT_EPOCH":21191,"BSTAR":0.00024701000000000004,"MEAN_MOTION_DOT":1.1e-06,"MEAN_MOTION_DDOT":0.0},{"OBJECT_NAME":"ONEWEB-0419","OBJECT_ID":"2021-132AB","EPOCH":"2026-04-04T05:27:02.741184","MEAN_MOTION":13.18685438,"ECCENTRICITY":0.0001652,"INCLINATION":87.924,"RA_OF_ASC_NODE":350.1546,"ARG_OF_PERICENTER":69.8454,"MEAN_ANOMALY":290.2856,"EPHEMERIS_TYPE":0,"CLASSIFICATION_TYPE":"U","NORAD_CAT_ID":50494,"ELEMENT_SET_NO":999,"REV_AT_EPOCH":21183,"BSTAR":0.00019088,"MEAN_MOTION_DOT":8.8e-07,"MEAN_MOTION_DDOT":0.0},{"OBJECT_NAME":"ONEWEB-0420","OBJECT_ID":"2021-132AC","EPOCH":"2026-04-04T06:26:26.512224","MEAN_MOTION":13.18686397,"ECCENTRICITY":0.0001992,"INCLINATION":87.923,"RA_OF_ASC_NODE":350.1562,"ARG_OF_PERICENTER":80.1845,"MEAN_ANOMALY":279.9512,"EPHEMERIS_TYPE":0,"CLASSIFICATION_TYPE":"U","NORAD_CAT_ID":50495,"ELEMENT_SET_NO":999,"REV_AT_EPOCH":21183,"BSTAR":0.00041728,"MEAN_MOTION_DOT":1.77e-06,"MEAN_MOTION_DDOT":0.0},{"OBJECT_NAME":"ONEWEB-0421","OBJECT_ID":"2021-132AD","EPOCH":"2026-04-04T04:27:40.018176","MEAN_MOTION":13.18684007,"ECCENTRICITY":0.000168,"INCLINATION":87.9241,"RA_OF_ASC_NODE":350.1661,"ARG_OF_PERICENTER":92.0511,"MEAN_ANOMALY":268.0813,"EPHEMERIS_TYPE":0,"CLASSIFICATION_TYPE":"U","NORAD_CAT_ID":50496,"ELEMENT_SET_NO":999,"REV_AT_EPOCH":21186,"BSTAR":0.00031385999999999995,"MEAN_MOTION_DOT":1.37e-06,"MEAN_MOTION_DDOT":0.0},{"OBJECT_NAME":"ONEWEB-0424","OBJECT_ID":"2021-132AE","EPOCH":"2026-04-04T05:19:55.602048","MEAN_MOTION":13.18684586,"ECCENTRICITY":0.0001784,"INCLINATION":87.9239,"RA_OF_ASC_NODE":350.1547,"ARG_OF_PERICENTER":68.8072,"MEAN_ANOMALY":291.3251,"EPHEMERIS_TYPE":0,"CLASSIFICATION_TYPE":"U","NORAD_CAT_ID":50497,"ELEMENT_SET_NO":999,"REV_AT_EPOCH":21189,"BSTAR":0.0002949,"MEAN_MOTION_DOT":1.29e-06,"MEAN_MOTION_DDOT":0.0},{"OBJECT_NAME":"ONEWEB-0426","OBJECT_ID":"2021-132AF","EPOCH":"2026-04-04T06:12:11.121984","MEAN_MOTION":13.18689313,"ECCENTRICITY":0.000124,"INCLINATION":87.9239,"RA_OF_ASC_NODE":350.1399,"ARG_OF_PERICENTER":98.6969,"MEAN_ANOMALY":261.4304,"EPHEMERIS_TYPE":0,"CLASSIFICATION_TYPE":"U","NORAD_CAT_ID":50498,"ELEMENT_SET_NO":999,"REV_AT_EPOCH":21184,"BSTAR":0.00023294,"MEAN_MOTION_DOT":1.05e-06,"MEAN_MOTION_DDOT":0.0}]